{"type": "FeatureCollection", "features": [ {"type": "Feature", "properties": {"norad_id": 67090, "name": "STARLINK-36060", "group": "last-30-days", "lat": -60.71647131390388, "lon": 178.04387766164515, "alt_km": 317.493159957583, "timestamp": "2025-12-23T18:59:30.760835+00:00", "meta": {"OBJECT_NAME": "STARLINK-36060", "OBJECT_ID": "2025-298R", "EPOCH": "2025-12-23T06:00:00.999648", "MEAN_MOTION": 15.88194252, "ECCENTRICITY": 0.00038792, "INCLINATION": 69.9958, "RA_OF_ASC_NODE": 220.1197, "ARG_OF_PERICENTER": 273.8355, "MEAN_ANOMALY": 166.0529, "EPHEMERIS_TYPE": 0, "CLASSIFICATION_TYPE": "U", "NORAD_CAT_ID": 67090, "ELEMENT_SET_NO": 999, "REV_AT_EPOCH": 260, "BSTAR": -0.0073277871, "MEAN_MOTION_DOT": -0.01747112, "MEAN_MOTION_DDOT": 0}, "tle": {"line1": "1 67090U 25298R   25357.25001157 -.01747112  00000+0 -73278-2 0  9994", "line2": "2 67090  69.9958 220.1197 0003879 273.8355 166.0529 15.88194252  2604"}}, "geometry": {"type": "Point", "coordinates": [178.04387766164515, -60.71647131390388]}}, {"type": "Feature", "properties": {"norad_id": 67091, "name": "STARLINK-36097", "group": "last-30-days", "lat": -59.13538079676187, "lon": -179.00269739265678, "alt_km": 317.6153728188874, "timestamp": "2025-12-23T18:59:30.760846+00:00", "meta": {"OBJECT_NAME": "STARLINK-36097", "OBJECT_ID": "2025-298S", "EPOCH": "2025-12-23T06:00:00.999648", "MEAN_MOTION": 15.88182144, "ECCENTRICITY": 0.00037162, "INCLINATION": 69.9961, "RA_OF_ASC_NODE": 220.117, "ARG_OF_PERICENTER": 274.0569, "MEAN_ANOMALY": 168.0184, "EPHEMERIS_TYPE": 0, "CLASSIFICATION_TYPE": "U", "NORAD_CAT_ID": 67091, "ELEMENT_SET_NO": 999, "REV_AT_EPOCH": 266, "BSTAR": -0.0073071268, "MEAN_MOTION_DOT": -0.01741717, "MEAN_MOTION_DDOT": 0}, "tle": {"line1": "1 67091U 25298S   25357.25001157 -.01741717  00000+0 -73071-2 0  9991", "line2": "2 67091  69.9961 220.1170 0003716 274.0569 168.0184 15.88182144  2662"}}, "geometry": {"type": "Point", "coordinates": [-179.00269739265678, -59.13538079676187]}}, {"type": "Feature", "properties": {"norad_id": 67092, "name": "STARLINK-35792", "group": "last-30-days", "lat": -57.73600387889062, "lon": -176.69247368405306, "alt_km": 317.504719252046, "timestamp": "2025-12-23T18:59:30.760855+00:00", "meta": {"OBJECT_NAME": "STARLINK-35792", "OBJECT_ID": "2025-298T", "EPOCH": "2025-12-23T06:00:00.999648", "MEAN_MOTION": 15.88189436, "ECCENTRICITY": 0.00038418, "INCLINATION": 69.9959, "RA_OF_ASC_NODE": 220.1148, "ARG_OF_PERICENTER": 276.1461, "MEAN_ANOMALY": 167.777, "EPHEMERIS_TYPE": 0, "CLASSIFICATION_TYPE": "U", "NORAD_CAT_ID": 67092, "ELEMENT_SET_NO": 999, "REV_AT_EPOCH": 260, "BSTAR": -0.0073351941, "MEAN_MOTION_DOT": -0.0174822, "MEAN_MOTION_DDOT": 0}, "tle": {"line1": "1 67092U 25298T   25357.25001157 -.01748220  00000+0 -73352-2 0  9990", "line2": "2 67092  69.9959 220.1148 0003841 276.1461 167.7770 15.88189436  2600"}}, "geometry": {"type": "Point", "coordinates": [-176.69247368405306, -57.73600387889062]}}, {"type": "Feature", "properties": {"norad_id": 67093, "name": "STARLINK-35784", "group": "last-30-days", "lat": -56.1865654208085, "lon": -174.4007327075436, "alt_km": 317.5082232523255, "timestamp": "2025-12-23T18:59:30.760863+00:00", "meta": {"OBJECT_NAME": "STARLINK-35784", "OBJECT_ID": "2025-298U", "EPOCH": "2025-12-23T06:00:00.999648", "MEAN_MOTION": 15.88189978, "ECCENTRICITY": 0.00038778, "INCLINATION": 69.9958, "RA_OF_ASC_NODE": 220.1121, "ARG_OF_PERICENTER": 275.3296, "MEAN_ANOMALY": 170.5904, "EPHEMERIS_TYPE": 0, "CLASSIFICATION_TYPE": "U", "NORAD_CAT_ID": 67093, "ELEMENT_SET_NO": 999, "REV_AT_EPOCH": 266, "BSTAR": -0.0073532433, "MEAN_MOTION_DOT": -0.01752025, "MEAN_MOTION_DDOT": 0}, "tle": {"line1": "1 67093U 25298U   25357.25001157 -.01752025  00000+0 -73532-2 0  9999", "line2": "2 67093  69.9958 220.1121 0003877 275.3296 170.5904 15.88189978  2665"}}, "geometry": {"type": "Point", "coordinates": [-174.4007327075436, -56.1865654208085]}}, {"type": "Feature", "properties": {"norad_id": 67094, "name": "STARLINK-36202", "group": "last-30-days", "lat": -54.42706570177957, "lon": -172.07389736348338, "alt_km": 317.4348878855053, "timestamp": "2025-12-23T18:59:30.760872+00:00", "meta": {"OBJECT_NAME": "STARLINK-36202", "OBJECT_ID": "2025-298V", "EPOCH": "2025-12-23T06:00:00.999648", "MEAN_MOTION": 15.88189301, "ECCENTRICITY": 0.0004071, "INCLINATION": 69.9958, "RA_OF_ASC_NODE": 220.1096, "ARG_OF_PERICENTER": 274.7805, "MEAN_ANOMALY": 173.3575, "EPHEMERIS_TYPE": 0, "CLASSIFICATION_TYPE": "U", "NORAD_CAT_ID": 67094, "ELEMENT_SET_NO": 999, "REV_AT_EPOCH": 266, "BSTAR": -0.0073990529, "MEAN_MOTION_DOT": -0.01761659, "MEAN_MOTION_DDOT": 0}, "tle": {"line1": "1 67094U 25298V   25357.25001157 -.01761659  00000+0 -73991-2 0  9992", "line2": "2 67094  69.9958 220.1096 0004071 274.7805 173.3575 15.88189301  2668"}}, "geometry": {"type": "Point", "coordinates": [-172.07389736348338, -54.42706570177957]}}, {"type": "Feature", "properties": {"norad_id": 67095, "name": "STARLINK-36227", "group": "last-30-days", "lat": -52.73976282758713, "lon": -170.06960357466482, "alt_km": 317.6356050673803, "timestamp": "2025-12-23T18:59:30.760881+00:00", "meta": {"OBJECT_NAME": "STARLINK-36227", "OBJECT_ID": "2025-298W", "EPOCH": "2025-12-23T06:00:00.999648", "MEAN_MOTION": 15.88176114, "ECCENTRICITY": 0.00036476, "INCLINATION": 69.9955, "RA_OF_ASC_NODE": 220.1069, "ARG_OF_PERICENTER": 278.3008, "MEAN_ANOMALY": 171.9243, "EPHEMERIS_TYPE": 0, "CLASSIFICATION_TYPE": "U", "NORAD_CAT_ID": 67095, "ELEMENT_SET_NO": 999, "REV_AT_EPOCH": 260, "BSTAR": -0.0073627612, "MEAN_MOTION_DOT": -0.01752613, "MEAN_MOTION_DDOT": 0}, "tle": {"line1": "1 67095U 25298W   25357.25001157 -.01752613  00000+0 -73628-2 0  9990", "line2": "2 67095  69.9955 220.1069 0003647 278.3008 171.9243 15.88176114  2607"}}, "geometry": {"type": "Point", "coordinates": [-170.06960357466482, -52.73976282758713]}}, {"type": "Feature", "properties": {"norad_id": 67096, "name": "STARLINK-36228", "group": "last-30-days", "lat": -51.25006399945345, "lon": -168.45221639434797, "alt_km": 317.57384970360454, "timestamp": "2025-12-23T18:59:30.760892+00:00", "meta": {"OBJECT_NAME": "STARLINK-36228", "OBJECT_ID": "2025-298X", "EPOCH": "2025-12-23T06:00:00.999648", "MEAN_MOTION": 15.88186578, "ECCENTRICITY": 0.00038123, "INCLINATION": 69.9956, "RA_OF_ASC_NODE": 220.1051, "ARG_OF_PERICENTER": 275.7071, "MEAN_ANOMALY": 176.2982, "EPHEMERIS_TYPE": 0, "CLASSIFICATION_TYPE": "U", "NORAD_CAT_ID": 67096, "ELEMENT_SET_NO": 999, "REV_AT_EPOCH": 260, "BSTAR": -0.0073908257, "MEAN_MOTION_DOT": -0.01759399, "MEAN_MOTION_DDOT": 0}, "tle": {"line1": "1 67096U 25298X   25357.25001157 -.01759399  00000+0 -73908-2 0  9990", "line2": "2 67096  69.9956 220.1051 0003812 275.7071 176.2982 15.88186578  2608"}}, "geometry": {"type": "Point", "coordinates": [-168.45221639434797, -51.25006399945345]}}, {"type": "Feature", "properties": {"norad_id": 67097, "name": "STARLINK-36222", "group": "last-30-days", "lat": -49.55227909735847, "lon": -166.75771675208608, "alt_km": 317.5940635777288, "timestamp": "2025-12-23T18:59:30.760901+00:00", "meta": {"OBJECT_NAME": "STARLINK-36222", "OBJECT_ID": "2025-298Y", "EPOCH": "2025-12-23T06:00:00.999648", "MEAN_MOTION": 15.8818624, "ECCENTRICITY": 0.00038253, "INCLINATION": 69.9957, "RA_OF_ASC_NODE": 220.1027, "ARG_OF_PERICENTER": 274.8304, "MEAN_ANOMALY": 179.1942, "EPHEMERIS_TYPE": 0, "CLASSIFICATION_TYPE": "U", "NORAD_CAT_ID": 67097, "ELEMENT_SET_NO": 999, "REV_AT_EPOCH": 260, "BSTAR": -0.0074058084, "MEAN_MOTION_DOT": -0.01762466, "MEAN_MOTION_DDOT": 0}, "tle": {"line1": "1 67097U 25298Y   25357.25001157 -.01762466  00000+0 -74058-2 0  9997", "line2": "2 67097  69.9957 220.1027 0003825 274.8304 179.1942 15.88186240  2600"}}, "geometry": {"type": "Point", "coordinates": [-166.75771675208608, -49.55227909735847]}}, {"type": "Feature", "properties": {"norad_id": 67098, "name": "STARLINK-36205", "group": "last-30-days", "lat": -47.66993279122504, "lon": -165.03679276494753, "alt_km": 317.7944713857214, "timestamp": "2025-12-23T18:59:30.760910+00:00", "meta": {"OBJECT_NAME": "STARLINK-36205", "OBJECT_ID": "2025-298Z", "EPOCH": "2025-12-23T06:00:00.999648", "MEAN_MOTION": 15.88178734, "ECCENTRICITY": 0.00036708, "INCLINATION": 69.9955, "RA_OF_ASC_NODE": 220.0999, "ARG_OF_PERICENTER": 271.2833, "MEAN_ANOMALY": 184.9584, "EPHEMERIS_TYPE": 0, "CLASSIFICATION_TYPE": "U", "NORAD_CAT_ID": 67098, "ELEMENT_SET_NO": 999, "REV_AT_EPOCH": 266, "BSTAR": -0.0074121167, "MEAN_MOTION_DOT": -0.01762973, "MEAN_MOTION_DDOT": 0}, "tle": {"line1": "1 67098U 25298Z   25357.25001157 -.01762973  00000+0 -74121-2 0  9992", "line2": "2 67098  69.9955 220.0999 0003670 271.2833 184.9584 15.88178734  2663"}}, "geometry": {"type": "Point", "coordinates": [-165.03679276494753, -47.66993279122504]}}, {"type": "Feature", "properties": {"norad_id": 67099, "name": "STARLINK-36193", "group": "last-30-days", "lat": -44.61653749727287, "lon": -162.53291512627376, "alt_km": 317.5754456538325, "timestamp": "2025-12-23T18:59:30.760920+00:00", "meta": {"OBJECT_NAME": "STARLINK-36193", "OBJECT_ID": "2025-298AA", "EPOCH": "2025-12-23T06:00:00.999648", "MEAN_MOTION": 15.88184429, "ECCENTRICITY": 0.00037948, "INCLINATION": 69.9956, "RA_OF_ASC_NODE": 220.0959, "ARG_OF_PERICENTER": 274.649, "MEAN_ANOMALY": 185.0916, "EPHEMERIS_TYPE": 0, "CLASSIFICATION_TYPE": "U", "NORAD_CAT_ID": 67099, "ELEMENT_SET_NO": 999, "REV_AT_EPOCH": 260, "BSTAR": -0.0073808196, "MEAN_MOTION_DOT": -0.01757156, "MEAN_MOTION_DDOT": 0}, "tle": {"line1": "1 67099U 25298AA  25357.25001157 -.01757156  00000+0 -73808-2 0  9991", "line2": "2 67099  69.9956 220.0959 0003794 274.6490 185.0916 15.88184429  2607"}}, "geometry": {"type": "Point", "coordinates": [-162.53291512627376, -44.61653749727287]}}]}